[Satellite]
VERSION=1.1
NAME=STAR ONE C3
NICKNAME=STAR ONE C3
TLE1=1 38991U 12062A   15055.37312885 -.00000275  00000-0  10000-3 0  9993
TLE2=2 38991   0.0685  91.2788 0002055 219.9318 262.0204  1.00270866  8432
